{
    "links": {
        "self": "http://www.neowsapp.com/rest/v1/neo/3352551?api_key=iIulBulltgU6a56xZRHN4H3l9WmuAYTsLGpBGhQ2"
    },
    "id": "3352551",
    "neo_reference_id": "3352551",
    "name": "(2006 UU17)",
    "designation": "2006 UU17",
    "nasa_jpl_url": "http://ssd.jpl.nasa.gov/sbdb.cgi?sstr=3352551",
    "absolute_magnitude_h": 26.6,
    "estimated_diameter": {
        "kilometers": {
            "estimated_diameter_min": 0.0127219879,
            "estimated_diameter_max": 0.0284472297
        },
        "meters": {
            "estimated_diameter_min": 12.7219878539,
            "estimated_diameter_max": 28.4472296503
        },
        "miles": {
            "estimated_diameter_min": 0.0079050743,
            "estimated_diameter_max": 0.0176762835
        },
        "feet": {
            "estimated_diameter_min": 41.7388066307,
            "estimated_diameter_max": 93.330808926
        }
    },
    "is_potentially_hazardous_asteroid": false,
    "close_approach_data": [
        {
            "close_approach_date": "2006-10-16",
            "close_approach_date_full": "2006-Oct-16 13:40",
            "epoch_date_close_approach": 1161006000000,
            "relative_velocity": {
                "kilometers_per_second": "9.4017173446",
                "kilometers_per_hour": "33846.1824407197",
                "miles_per_hour": "21030.701528235"
            },
            "miss_distance": {
                "astronomical": "0.0059086289",
                "lunar": "2.2984566421",
                "kilometers": "883918.298060443",
                "miles": "549241.3617543934"
            },
            "orbiting_body": "Earth"
        },
        {
            "close_approach_date": "2006-10-16",
            "close_approach_date_full": "2006-Oct-16 16:18",
            "epoch_date_close_approach": 1161015480000,
            "relative_velocity": {
                "kilometers_per_second": "10.2800043393",
                "kilometers_per_hour": "37008.0156214393",
                "miles_per_hour": "22995.3417065549"
            },
            "miss_distance": {
                "astronomical": "0.0069206805",
                "lunar": "2.6921447145",
                "kilometers": "1035319.061750535",
                "miles": "643317.433945983"
            },
            "orbiting_body": "Moon"
        }
    ],
    "orbital_data": {
        "orbit_id": "8",
        "orbit_determination_date": "2017-04-06 09:07:49",
        "first_observation_date": "2006-10-20",
        "last_observation_date": "2006-10-27",
        "data_arc_in_days": 7,
        "observations_used": 21,
        "orbit_uncertainty": "8",
        "minimum_orbit_intersection": ".00588915",
        "jupiter_tisserand_invariant": "3.314",
        "epoch_osculation": "2454030.5",
        "eccentricity": ".5843246005687505",
        "semi_major_axis": "2.33560237869647",
        "inclination": "2.887380630809937",
        "ascending_node_longitude": "209.1862148217716",
        "orbital_period": "1303.757411244942",
        "perihelion_distance": ".9708524516772319",
        "perihelion_argument": "151.1755433786731",
        "aphelion_distance": "3.700352305715708",
        "perihelion_time": "2454007.329512353574",
        "mean_anomaly": "6.397950631588958",
        "mean_motion": ".2761249883567223",
        "equinox": "J2000",
        "orbit_class": {
            "orbit_class_type": "APO",
            "orbit_class_description": "Near-Earth asteroid orbits which cross the Earth’s orbit similar to that of 1862 Apollo",
            "orbit_class_range": "a (semi-major axis) > 1.0 AU; q (perihelion) < 1.017 AU"
        }
    },
    "is_sentry_object": false
}